CCSDS_OMM_VERS = 2.0
CREATION_DATE  = 
ORIGINATOR     = 

OBJECT_NAME    = ATLAS CENTAUR R/B
OBJECT_ID      = 1972-065B
CENTER_NAME    = EARTH
REF_FRAME      = TEME
TIME_SYSTEM    = UTC
MEAN_ELEMENT_THEORY = SGP/SGP4

EPOCH          = 2026-01-15T15:37:07.061088
MEAN_MOTION    = 14.77509361
ECCENTRICITY   = .00346032
INCLINATION    = 35.0010
RA_OF_ASC_NODE = 256.5421
ARG_OF_PERICENTER = 283.7071
MEAN_ANOMALY   = 75.9778

EPHEMERIS_TYPE = 0
CLASSIFICATION_TYPE = U
NORAD_CAT_ID   = 6155
ELEMENT_SET_NO = 999
REV_AT_EPOCH   = 83341
BSTAR          = .96299584E-4
MEAN_MOTION_DOT = .681E-5
MEAN_MOTION_DDOT = 0

CCSDS_OMM_VERS = 2.0
CREATION_DATE  = 
ORIGINATOR     = 

OBJECT_NAME    = SL-8 R/B
OBJECT_ID      = 1975-112B
CENTER_NAME    = EARTH
REF_FRAME      = TEME
TIME_SYSTEM    = UTC
MEAN_ELEMENT_THEORY = SGP/SGP4

EPOCH          = 2026-01-15T13:37:45.225984
MEAN_MOTION    = 14.38170190
ECCENTRICITY   = .00163948
INCLINATION    = 74.0614
RA_OF_ASC_NODE = 116.6365
ARG_OF_PERICENTER = 224.4997
MEAN_ANOMALY   = 135.4842

EPHEMERIS_TYPE = 0
CLASSIFICATION_TYPE = U
NORAD_CAT_ID   = 8459
ELEMENT_SET_NO = 999
REV_AT_EPOCH   = 62423
BSTAR          = .59355143E-4
MEAN_MOTION_DOT = .154E-5
MEAN_MOTION_DDOT = 0

CCSDS_OMM_VERS = 2.0
CREATION_DATE  = 
ORIGINATOR     = 

OBJECT_NAME    = SL-3 R/B
OBJECT_ID      = 1977-057B
CENTER_NAME    = EARTH
REF_FRAME      = TEME
TIME_SYSTEM    = UTC
MEAN_ELEMENT_THEORY = SGP/SGP4

EPOCH          = 2026-01-15T14:23:10.782240
MEAN_MOTION    = 15.43861884
ECCENTRICITY   = .00085115
INCLINATION    = 97.5697
RA_OF_ASC_NODE = 185.2732
ARG_OF_PERICENTER = 111.6385
MEAN_ANOMALY   = 248.5770

EPHEMERIS_TYPE = 0
CLASSIFICATION_TYPE = U
NORAD_CAT_ID   = 10114
ELEMENT_SET_NO = 999
REV_AT_EPOCH   = 66013
BSTAR          = .17509704E-3
MEAN_MOTION_DOT = .7859E-4
MEAN_MOTION_DDOT = 0

CCSDS_OMM_VERS = 2.0
CREATION_DATE  = 
ORIGINATOR     = 

OBJECT_NAME    = SEASAT 1
OBJECT_ID      = 1978-064A
CENTER_NAME    = EARTH
REF_FRAME      = TEME
TIME_SYSTEM    = UTC
MEAN_ELEMENT_THEORY = SGP/SGP4

EPOCH          = 2026-01-15T13:53:01.297536
MEAN_MOTION    = 14.46103348
ECCENTRICITY   = .0001178
INCLINATION    = 108.0158
RA_OF_ASC_NODE = 14.0368
ARG_OF_PERICENTER = 277.3730
MEAN_ANOMALY   = 82.7282

EPHEMERIS_TYPE = 0
CLASSIFICATION_TYPE = U
NORAD_CAT_ID   = 10967
ELEMENT_SET_NO = 999
REV_AT_EPOCH   = 49883
BSTAR          = .89439577E-4
MEAN_MOTION_DOT = .182E-5
MEAN_MOTION_DDOT = 0

CCSDS_OMM_VERS = 2.0
CREATION_DATE  = 
ORIGINATOR     = 

OBJECT_NAME    = SL-14 R/B
OBJECT_ID      = 1979-011B
CENTER_NAME    = EARTH
REF_FRAME      = TEME
TIME_SYSTEM    = UTC
MEAN_ELEMENT_THEORY = SGP/SGP4

EPOCH          = 2026-01-15T09:25:22.020672
MEAN_MOTION    = 14.91822711
ECCENTRICITY   = .00149018
INCLINATION    = 82.5257
RA_OF_ASC_NODE = 147.1284
ARG_OF_PERICENTER = 232.3764
MEAN_ANOMALY   = 127.6104

EPHEMERIS_TYPE = 0
CLASSIFICATION_TYPE = U
NORAD_CAT_ID   = 11267
ELEMENT_SET_NO = 999
REV_AT_EPOCH   = 52083
BSTAR          = .4756827E-4
MEAN_MOTION_DOT = .506E-5
MEAN_MOTION_DDOT = 0

CCSDS_OMM_VERS = 2.0
CREATION_DATE  = 
ORIGINATOR     = 

OBJECT_NAME    = SL-8 R/B
OBJECT_ID      = 1979-089B
CENTER_NAME    = EARTH
REF_FRAME      = TEME
TIME_SYSTEM    = UTC
MEAN_ELEMENT_THEORY = SGP/SGP4

EPOCH          = 2026-01-15T14:46:25.870944
MEAN_MOTION    = 14.42307655
ECCENTRICITY   = .00155186
INCLINATION    = 74.0674
RA_OF_ASC_NODE = 189.2801
ARG_OF_PERICENTER = 10.9299
MEAN_ANOMALY   = 349.2191

EPHEMERIS_TYPE = 0
CLASSIFICATION_TYPE = U
NORAD_CAT_ID   = 11574
ELEMENT_SET_NO = 999
REV_AT_EPOCH   = 42845
BSTAR          = .85231514E-4
MEAN_MOTION_DOT = .255E-5
MEAN_MOTION_DDOT = 0

CCSDS_OMM_VERS = 2.0
CREATION_DATE  = 
ORIGINATOR     = 

OBJECT_NAME    = SL-14 R/B
OBJECT_ID      = 1980-005B
CENTER_NAME    = EARTH
REF_FRAME      = TEME
TIME_SYSTEM    = UTC
MEAN_ELEMENT_THEORY = SGP/SGP4

EPOCH          = 2026-01-15T08:53:45.862944
MEAN_MOTION    = 14.90840976
ECCENTRICITY   = .00153701
INCLINATION    = 82.5149
RA_OF_ASC_NODE = 357.7986
ARG_OF_PERICENTER = 347.4174
MEAN_ANOMALY   = 12.6659

EPHEMERIS_TYPE = 0
CLASSIFICATION_TYPE = U
NORAD_CAT_ID   = 11672
ELEMENT_SET_NO = 999
REV_AT_EPOCH   = 46854
BSTAR          = .47689044E-4
MEAN_MOTION_DOT = .495E-5
MEAN_MOTION_DDOT = 0

CCSDS_OMM_VERS = 2.0
CREATION_DATE  = 
ORIGINATOR     = 

OBJECT_NAME    = SL-8 R/B
OBJECT_ID      = 1981-003B
CENTER_NAME    = EARTH
REF_FRAME      = TEME
TIME_SYSTEM    = UTC
MEAN_ELEMENT_THEORY = SGP/SGP4

EPOCH          = 2026-01-15T09:16:20.773056
MEAN_MOTION    = 15.08497781
ECCENTRICITY   = .0271632
INCLINATION    = 82.9383
RA_OF_ASC_NODE = 339.2326
ARG_OF_PERICENTER = 4.7713
MEAN_ANOMALY   = 355.6004

EPHEMERIS_TYPE = 0
CLASSIFICATION_TYPE = U
NORAD_CAT_ID   = 12139
ELEMENT_SET_NO = 999
REV_AT_EPOCH   = 30663
BSTAR          = .51004574E-3
MEAN_MOTION_DOT = .19277E-3
MEAN_MOTION_DDOT = 0

CCSDS_OMM_VERS = 2.0
CREATION_DATE  = 
ORIGINATOR     = 

OBJECT_NAME    = SL-3 R/B
OBJECT_ID      = 1981-046B
CENTER_NAME    = EARTH
REF_FRAME      = TEME
TIME_SYSTEM    = UTC
MEAN_ELEMENT_THEORY = SGP/SGP4

EPOCH          = 2026-01-15T14:40:40.233792
MEAN_MOTION    = 15.40422998
ECCENTRICITY   = .00186497
INCLINATION    = 81.2326
RA_OF_ASC_NODE = 353.3893
ARG_OF_PERICENTER = 198.6997
MEAN_ANOMALY   = 161.3562

EPHEMERIS_TYPE = 0
CLASSIFICATION_TYPE = U
NORAD_CAT_ID   = 12465
ELEMENT_SET_NO = 999
REV_AT_EPOCH   = 43025
BSTAR          = .17168742E-3
MEAN_MOTION_DOT = .7017E-4
MEAN_MOTION_DDOT = 0

CCSDS_OMM_VERS = 2.0
CREATION_DATE  = 
ORIGINATOR     = 

OBJECT_NAME    = SL-3 R/B
OBJECT_ID      = 1981-103B
CENTER_NAME    = EARTH
REF_FRAME      = TEME
TIME_SYSTEM    = UTC
MEAN_ELEMENT_THEORY = SGP/SGP4

EPOCH          = 2026-01-15T14:50:00.187872
MEAN_MOTION    = 15.20679595
ECCENTRICITY   = .00143646
INCLINATION    = 81.1593
RA_OF_ASC_NODE = 275.6674
ARG_OF_PERICENTER = 101.6186
MEAN_ANOMALY   = 258.6659

EPHEMERIS_TYPE = 0
CLASSIFICATION_TYPE = U
NORAD_CAT_ID   = 12904
ELEMENT_SET_NO = 999
REV_AT_EPOCH   = 96516
BSTAR          = .10786172E-3
MEAN_MOTION_DOT = .2401E-4
MEAN_MOTION_DDOT = 0

CCSDS_OMM_VERS = 2.0
CREATION_DATE  = 
ORIGINATOR     = 

OBJECT_NAME    = SL-3 R/B
OBJECT_ID      = 1982-013B
CENTER_NAME    = EARTH
REF_FRAME      = TEME
TIME_SYSTEM    = UTC
MEAN_ELEMENT_THEORY = SGP/SGP4

EPOCH          = 2026-01-15T14:00:36.315360
MEAN_MOTION    = 15.21405876
ECCENTRICITY   = .00228814
INCLINATION    = 81.1725
RA_OF_ASC_NODE = 222.9848
ARG_OF_PERICENTER = 1.3223
MEAN_ANOMALY   = 358.8064

EPHEMERIS_TYPE = 0
CLASSIFICATION_TYPE = U
NORAD_CAT_ID   = 13068
ELEMENT_SET_NO = 999
REV_AT_EPOCH   = 39627
BSTAR          = .116645E-3
MEAN_MOTION_DOT = .2661E-4
MEAN_MOTION_DDOT = 0

CCSDS_OMM_VERS = 2.0
CREATION_DATE  = 
ORIGINATOR     = 

OBJECT_NAME    = SL-3 R/B
OBJECT_ID      = 1982-039B
CENTER_NAME    = EARTH
REF_FRAME      = TEME
TIME_SYSTEM    = UTC
MEAN_ELEMENT_THEORY = SGP/SGP4

EPOCH          = 2026-01-15T13:48:42.568416
MEAN_MOTION    = 15.09747585
ECCENTRICITY   = .00298872
INCLINATION    = 81.1675
RA_OF_ASC_NODE = 277.1609
ARG_OF_PERICENTER = 138.3392
MEAN_ANOMALY   = 222.0118

EPHEMERIS_TYPE = 0
CLASSIFICATION_TYPE = U
NORAD_CAT_ID   = 13154
ELEMENT_SET_NO = 999
REV_AT_EPOCH   = 37362
BSTAR          = .96396176E-4
MEAN_MOTION_DOT = .1595E-4
MEAN_MOTION_DDOT = 0

