ATLAS CENTAUR R/B       
1 06155U 72065B   26015.65077617  .00000681  00000+0  96300-4 0  9996
2 06155  35.0010 256.5421 0034603 283.7071  75.9778 14.77509361833412
SL-8 R/B                
1 08459U 75112B   26015.56788456  .00000154  00000+0  59355-4 0  9995
2 08459  74.0614 116.6365 0016394 224.4997 135.4842 14.38170190624236
SL-3 R/B                
1 10114U 77057B   26015.59943035  .00007859  00000+0  17510-3 0  9990
2 10114  97.5697 185.2732 0008511 111.6385 248.5770 15.43861884660137
SEASAT 1                
1 10967U 78064A   26015.57848724  .00000182  00000+0  89440-4 0  9996
2 10967 108.0158  14.0368 0001178 277.3730  82.7282 14.46103348498831
SL-14 R/B               
1 11267U 79011B   26015.39261598  .00000506  00000+0  47568-4 0  9996
2 11267  82.5257 147.1284 0014901 232.3764 127.6104 14.91822711520832
SL-8 R/B                
1 11574U 79089B   26015.61557721  .00000255  00000+0  85232-4 0  9994
2 11574  74.0674 189.2801 0015518  10.9299 349.2191 14.42307655428456
SL-14 R/B               
1 11672U 80005B   26015.37066971  .00000495  00000+0  47689-4 0  9998
2 11672  82.5149 357.7986 0015370 347.4174  12.6659 14.90840976468543
SL-8 R/B                
1 12139U 81003B   26015.38635154  .00019277  00000+0  51005-3 0  9996
2 12139  82.9383 339.2326 0271632   4.7713 355.6004 15.08497781306633
SL-3 R/B                
1 12465U 81046B   26015.61157678  .00007017  00000+0  17169-3 0  9993
2 12465  81.2326 353.3893 0018649 198.6997 161.3562 15.40422998430255
SL-3 R/B                
1 12904U 81103B   26015.61805773  .00002401  00000+0  10786-3 0  9991
2 12904  81.1593 275.6674 0014364 101.6186 258.6659 15.20679595965160
SL-3 R/B                
1 13068U 82013B   26015.58375365  .00002661  00000+0  11665-3 0  9994
2 13068  81.1725 222.9848 0022881   1.3223 358.8064 15.21405876396271
SL-3 R/B                
1 13154U 82039B   26015.57549269  .00001595  00000+0  96396-4 0  9993
2 13154  81.1675 277.1609 0029887 138.3392 222.0118 15.09747585373627
